STARLINK-1114
1 44927U 20001P   26090.82855304  .00111953  00000+0  16710-2 0  9997
2 44927  53.0472 222.7791 0004774 216.6750 143.3934 15.54213217343534
